{"features":[{"geometry":{"coordinates":[[[4.777,60.734],[4.791,60.764],[5.039,60.731],[4.989,60.792],[5.047,60.797],[4.952,60.84],[5.11,60.806],[5.408,60.703],[5.704,60.852],[5.677,60.737],[5.651,60.716],[5.573,60.628],[5.317,60.536],[5.237,60.495],[4.898,60.632],[4.777,60.734]]],"crs":{"properties":{"name":"EPSG:4326"},"type":"name"},"type":"Polygon"},"properties":{"kommunenavn":"Alver","kommunenummer":"4631"},"type":"Feature"},{"geometry":{"coordinates":[[[4.821,61.252],[4.103,61.23],[4.13,61.491],[5.258,61.49],[5.553,61.437],[5.417,61.381],[4.821,61.252]]],"crs":{"properties":{"name":"EPSG:4326"},"type":"name"},"type":"Polygon"},"properties":{"kommunenavn":"Askvoll","kommunenummer":"4645"},"type":"Feature"},{"geometry":{"coordinates":[[[5.17,60.382],[5.057,60.412],[4.898,60.632],[5.237,60.495],[5.28,60.409],[5.17,60.382]]],"crs":{"properties":{"name":"EPSG:4326"},"type":"name"},"type":"Polygon"},"properties":{"kommunenavn":"Askøy","kommunenummer":"4627"},"type":"Feature"},{"geometry":{"coordinates":[[[6.75,60.934],[7.03,61.06],[7.176,61.066],[7.284,61.029],[7.341,61.042],[7.354,60.981],[7.75,60.842],[7.704,60.739],[7.47,60.676],[6.986,60.741],[6.871,60.768],[6.949,60.841],[6.722,60.843],[6.826,60.896],[6.75,60.934]]],"crs":{"properties":{"name":"EPSG:4326"},"type":"name"},"type":"Polygon"},"properties":{"kommunenavn":"Aurland","kommunenummer":"4641"},"type":"Feature"},{"geometry":{"coordinates":[[[4.547,60.104],[5.21,60.189],[5.253,60.176],[5.332,60.107],[5.328,59.999],[5.078,59.939],[4.606,59.914],[4.547,60.104]]],"crs":{"properties":{"name":"EPSG:4326"},"type":"name"},"type":"Polygon"},"properties":{"kommunenavn":"Austevoll","kommunenummer":"4625"},"type":"Feature"},{"geometry":{"coordinates":[[[4.791,60.764],[4.687,60.858],[4.952,60.84],[5.047,60.797],[4.989,60.792],[5.039,60.731],[4.791,60.764]]],"crs":{"properties":{"name":"EPSG:4326"},"type":"name"},"type":"Polygon"},"properties":{"kommunenavn":"Austrheim","kommunenummer":"4632"},"type":"Feature"},{"geometry":{"coordinates":[[[5.17,60.382],[5.28,60.409],[5.237,60.495],[5.317,60.536],[5.526,60.425],[5.62,60.438],[5.686,60.436],[5.576,60.33],[5.253,60.176],[5.21,60.189],[5.233,60.255],[5.145,60.264],[5.203,60.321],[5.17,60.382]]],"crs":{"properties":{"name":"EPSG:4326"},"type":"name"},"type":"Polygon"},"properties":{"kommunenavn":"Bergen","kommunenummer":"4601"},"type":"Feature"},{"geometry":{"coordinates":[[[5.253,60.176],[5.576,60.33],[5.627,60.286],[5.74,60.354],[5.908,60.325],[5.961,60.266],[5.857,60.172],[5.872,60.1],[5.708,60.039],[5.653,60.114],[5.332,60.107],[5.253,60.176]]],"crs":{"properties":{"name":"EPSG:4326"},"type":"name"},"type":"Polygon"},"properties":{"kommunenavn":"Bjørnafjorden","kommunenummer":"4624"},"type":"Feature"},{"geometry":{"coordinates":[[[4.226,61.783],[4.441,62.032],[5.025,61.894],[5.327,61.902],[5.534,61.916],[5.826,61.853],[5.877,61.815],[5.832,61.758],[5.637,61.742],[5.293,61.717],[5.329,61.68],[5.218,61.662],[4.226,61.783]]],"crs":{"properties":{"name":"EPSG:4326"},"type":"name"},"type":"Polygon"},"properties":{"kommunenavn":"Bremanger","kommunenummer":"4648"},"type":"Feature"},{"geometry":{"coordinates":[[[4.604,59.558],[4.672,59.665],[4.606,59.914],[5.078,59.939],[5.321,59.808],[5.472,59.73],[5.288,59.644],[5.187,59.515],[4.604,59.558]]],"crs":{"properties":{"name":"EPSG:4326"},"type":"name"},"type":"Polygon"},"properties":{"kommunenavn":"Bømlo","kommunenummer":"4613"},"type":"Feature"},{"geometry":{"coordinates":[[[6.784,60.459],[6.804,60.468],[7.282,60.592],[7.732,60.521],[7.692,60.413],[7.674,60.294],[7.488,60.099],[7.223,60.134],[7.165,60.259],[7.243,60.269],[7.116,60.353],[6.982,60.348],[7.036,60.41],[6.784,60.459]]],"crs":{"properties":{"name":"EPSG:4326"},"type":"name"},"type":"Polygon"},"properties":{"kommunenavn":"Eidfjord","kommunenummer":"4619"},"type":"Feature"},{"geometry":{"coordinates":[[[5.764,59.7],[5.928,59.781],[6.086,59.75],[6.163,59.793],[6.122,59.856],[6.332,60.018],[6.493,59.936],[6.525,59.838],[6.302,59.767],[6.183,59.586],[6.166,59.585],[5.969,59.579],[5.764,59.7]]],"crs":{"properties":{"name":"EPSG:4326"},"type":"name"},"type":"Polygon"},"properties":{"kommunenavn":"Etne","kommunenummer":"4611"},"type":"Feature"},{"geometry":{"coordinates":[[[4.185,60.833],[4.611,60.887],[4.687,60.858],[4.791,60.764],[4.777,60.734],[4.266,60.688],[4.185,60.833]]],"crs":{"properties":{"name":"EPSG:4326"},"type":"name"},"type":"Polygon"},"properties":{"kommunenavn":"Fedje","kommunenummer":"4633"},"type":"Feature"},{"geometry":{"coordinates":[[[5.078,59.939],[5.328,59.999],[5.499,59.924],[5.321,59.808],[5.078,59.939]]],"crs":{"properties":{"name":"EPSG:4326"},"type":"name"},"type":"Polygon"},"properties":{"kommunenavn":"Fitjar","kommunenummer":"4615"},"type":"Feature"},{"geometry":{"coordinates":[[[4.821,61.252],[5.417,61.381],[5.568,61.367],[5.73,61.246],[5.616,61.182],[5.489,61.206],[5.464,61.208],[5.446,61.207],[5.265,61.282],[4.917,61.236],[4.821,61.252]]],"crs":{"properties":{"name":"EPSG:4326"},"type":"name"},"type":"Polygon"},"properties":{"kommunenavn":"Fjaler","kommunenummer":"4646"},"type":"Feature"},{"geometry":{"coordinates":[[[5.637,61.742],[5.832,61.758],[5.877,61.815],[5.826,61.853],[6.265,61.853],[6.34,61.793],[6.739,61.796],[6.719,61.702],[6.375,61.602],[6.192,61.649],[5.716,61.586],[5.646,61.617],[5.7,61.689],[5.637,61.742]]],"crs":{"properties":{"name":"EPSG:4326"},"type":"name"},"type":"Polygon"},"properties":{"kommunenavn":"Gloppen","kommunenummer":"4650"},"type":"Feature"},{"geometry":{"coordinates":[[[4.611,60.887],[5.156,61.118],[5.374,61.052],[5.418,61.047],[5.581,61.093],[5.62,60.977],[5.227,60.926],[5.11,60.806],[4.952,60.84],[4.687,60.858],[4.611,60.887]]],"crs":{"properties":{"name":"EPSG:4326"},"type":"name"},"type":"Polygon"},"properties":{"kommunenavn":"Gulen","kommunenummer":"4635"},"type":"Feature"},{"geometry":{"coordinates":[[[4.917,61.236],[5.265,61.282],[5.446,61.207],[5.448,61.112],[5.374,61.052],[5.156,61.118],[4.917,61.236]]],"crs":{"properties":{"name":"EPSG:4326"},"type":"name"},"type":"Polygon"},"properties":{"kommunenavn":"Hyllestad","kommunenummer":"4637"},"type":"Feature"},{"geometry":{"coordinates":[[[5.374,61.052],[5.448,61.112],[5.446,61.207],[5.464,61.208],[5.489,61.206],[5.616,61.182],[5.73,61.246],[5.832,61.24],[5.918,61.286],[6.336,61.297],[6.411,61.256],[6.252,61.231],[6.411,61.194],[6.341,61.097],[6.194,61.138],[6.149,60.984],[6.017,61.035],[5.929,61.012],[5.886,60.952],[5.865,60.952],[5.62,60.977],[5.581,61.093],[5.418,61.047],[5.374,61.052]]],"crs":{"properties":{"name":"EPSG:4326"},"type":"name"},"type":"Polygon"},"properties":{"kommunenavn":"Høyanger","kommunenummer":"4638"},"type":"Feature"},{"geometry":{"coordinates":[[[[4.226,61.783],[5.218,61.662],[5.329,61.68],[5.293,61.717],[5.637,61.742],[5.7,61.689],[5.646,61.617],[5.716,61.586],[5.57,61.512],[5.258,61.49],[4.13,61.491],[4.226,61.783]]],[[[4.579,62.181],[5.223,62.045],[5.202,61.959],[5.327,61.902],[5.025,61.894],[4.441,62.032],[4.579,62.181]]]],"crs":{"properties":{"name":"EPSG:4326"},"type":"name"},"type":"MultiPolygon"},"properties":{"kommunenavn":"Kinn","kommunenummer":"4602"},"type":"Feature"},{"geometry":{"coordinates":[[[6.027,60.194],[5.872,60.1],[5.857,60.172],[5.961,60.266],[5.908,60.325],[5.991,60.503],[6.079,60.525],[6.371,60.509],[6.511,60.431],[6.027,60.194]]],"crs":{"properties":{"name":"EPSG:4326"},"type":"name"},"type":"Polygon"},"properties":{"kommunenavn":"Kvam","kommunenummer":"4622"},"type":"Feature"},{"geometry":{"coordinates":[[[5.581,59.754],[5.649,59.858],[5.77,59.956],[5.712,59.963],[5.708,60.039],[5.872,60.1],[6.027,60.194],[6.161,60.117],[6.279,60.208],[6.474,60.209],[6.468,60.113],[6.332,60.018],[6.122,59.856],[6.163,59.793],[6.086,59.75],[5.928,59.781],[5.764,59.7],[5.581,59.754]]],"crs":{"properties":{"name":"EPSG:4326"},"type":"name"},"type":"Polygon"},"properties":{"kommunenavn":"Kvinnherad","kommunenummer":"4617"},"type":"Feature"},{"geometry":{"coordinates":[[[6.809,61.57],[6.854,61.609],[7.413,61.858],[7.514,61.727],[7.753,61.755],[7.904,61.679],[7.947,61.557],[8.262,61.534],[8.303,61.446],[8.15,61.427],[7.645,61.441],[7.62,61.322],[7.507,61.329],[7.378,61.199],[7.43,61.183],[7.082,61.294],[6.874,61.413],[6.899,61.483],[6.809,61.57]]],"crs":{"properties":{"name":"EPSG:4326"},"type":"name"},"type":"Polygon"},"properties":{"kommunenavn":"Luster","kommunenummer":"4644"},"type":"Feature"},{"geometry":{"coordinates":[[[6.999,61.092],[7.43,61.183],[7.475,61.192],[7.473,61.147],[7.656,61.111],[7.813,61.12],[7.784,61.151],[8.007,61.235],[8.252,61.074],[8.214,61.054],[8.283,61.033],[8.223,60.968],[8.041,60.893],[7.879,60.924],[7.775,60.867],[7.75,60.842],[7.354,60.981],[7.341,61.042],[7.284,61.029],[7.176,61.066],[7.03,61.06],[6.999,61.092]]],"crs":{"properties":{"name":"EPSG:4326"},"type":"name"},"type":"Polygon"},"properties":{"kommunenavn":"Lærdal","kommunenummer":"4642"},"type":"Feature"},{"geometry":{"coordinates":[[[5.11,60.806],[5.227,60.926],[5.62,60.977],[5.865,60.952],[5.704,60.852],[5.408,60.703],[5.11,60.806]]],"crs":{"properties":{"name":"EPSG:4326"},"type":"name"},"type":"Polygon"},"properties":{"kommunenavn":"Masfjorden","kommunenummer":"4634"},"type":"Feature"},{"geometry":{"coordinates":[[[6.21,60.914],[5.677,60.737],[5.704,60.852],[5.865,60.952],[5.886,60.952],[5.929,61.012],[6.017,61.035],[6.149,60.984],[6.21,60.914]]],"crs":{"properties":{"name":"EPSG:4326"},"type":"name"},"type":"Polygon"},"properties":{"kommunenavn":"Modalen","kommunenummer":"4629"},"type":"Feature"},{"geometry":{"coordinates":[[[5.317,60.536],[5.573,60.628],[5.651,60.716],[5.674,60.599],[5.587,60.576],[5.71,60.531],[5.721,60.464],[5.62,60.438],[5.526,60.425],[5.317,60.536]]],"crs":{"properties":{"name":"EPSG:4326"},"type":"name"},"type":"Polygon"},"properties":{"kommunenavn":"Osterøy","kommunenummer":"4630"},"type":"Feature"},{"geometry":{"coordinates":[[[5.576,60.33],[5.686,60.436],[5.991,60.503],[5.908,60.325],[5.74,60.354],[5.627,60.286],[5.576,60.33]]],"crs":{"properties":{"name":"EPSG:4326"},"type":"name"},"type":"Polygon"},"properties":{"kommunenavn":"Samnanger","kommunenummer":"4623"},"type":"Feature"},{"geometry":{"coordinates":[[[6.336,61.297],[6.809,61.57],[6.899,61.483],[6.874,61.413],[7.082,61.294],[7.43,61.183],[6.999,61.092],[6.654,61.191],[6.484,61.099],[6.37,61.09],[6.341,61.097],[6.411,61.194],[6.252,61.231],[6.411,61.256],[6.336,61.297]]],"crs":{"properties":{"name":"EPSG:4326"},"type":"name"},"type":"Polygon"},"properties":{"kommunenavn":"Sogndal","kommunenummer":"4640"},"type":"Feature"},{"geometry":{"coordinates":[[[4.103,61.23],[4.821,61.252],[4.917,61.236],[5.156,61.118],[4.611,60.887],[4.185,60.833],[4.091,61.011],[4.103,61.23]]],"crs":{"properties":{"name":"EPSG:4326"},"type":"name"},"type":"Polygon"},"properties":{"kommunenavn":"Solund","kommunenummer":"4636"},"type":"Feature"},{"geometry":{"coordinates":[[[4.579,62.181],[4.817,62.382],[5.218,62.261],[5.358,62.155],[5.503,62.067],[5.443,61.974],[5.73,61.981],[6.04,61.957],[6.217,62.009],[6.477,61.934],[6.261,61.901],[6.265,61.853],[5.826,61.853],[5.534,61.916],[5.327,61.902],[5.202,61.959],[5.223,62.045],[4.579,62.181]]],"crs":{"properties":{"name":"EPSG:4326"},"type":"name"},"type":"Polygon"},"properties":{"kommunenavn":"Stad","kommunenummer":"4649"},"type":"Feature"},{"geometry":{"coordinates":[[[5.321,59.808],[5.499,59.924],[5.649,59.858],[5.581,59.754],[5.472,59.73],[5.321,59.808]]],"crs":{"properties":{"name":"EPSG:4326"},"type":"name"},"type":"Polygon"},"properties":{"kommunenavn":"Stord","kommunenummer":"4614"},"type":"Feature"},{"geometry":{"coordinates":[[[6.265,61.853],[6.261,61.901],[6.477,61.934],[6.794,61.97],[7.349,62.008],[7.413,61.858],[6.854,61.609],[6.719,61.702],[6.739,61.796],[6.34,61.793],[6.265,61.853]]],"crs":{"properties":{"name":"EPSG:4326"},"type":"name"},"type":"Polygon"},"properties":{"kommunenavn":"Stryn","kommunenummer":"4651"},"type":"Feature"},{"geometry":{"coordinates":[[[5.258,61.49],[5.57,61.512],[5.716,61.586],[6.192,61.649],[6.375,61.602],[6.719,61.702],[6.854,61.609],[6.809,61.57],[6.336,61.297],[5.918,61.286],[5.832,61.24],[5.73,61.246],[5.568,61.367],[5.417,61.381],[5.553,61.437],[5.258,61.49]]],"crs":{"properties":{"name":"EPSG:4326"},"type":"name"},"type":"Polygon"},"properties":{"kommunenavn":"Sunnfjord","kommunenummer":"4647"},"type":"Feature"},{"geometry":{"coordinates":[[[5.187,59.515],[5.288,59.644],[5.472,59.73],[5.581,59.754],[5.551,59.565],[5.462,59.499],[5.397,59.483],[5.187,59.515]]],"crs":{"properties":{"name":"EPSG:4326"},"type":"name"},"type":"Polygon"},"properties":{"kommunenavn":"Sveio","kommunenummer":"4612"},"type":"Feature"},{"geometry":{"coordinates":[[[5.328,59.999],[5.332,60.107],[5.653,60.114],[5.708,60.039],[5.712,59.963],[5.77,59.956],[5.649,59.858],[5.499,59.924],[5.328,59.999]]],"crs":{"properties":{"name":"EPSG:4326"},"type":"name"},"type":"Polygon"},"properties":{"kommunenavn":"Tysnes","kommunenummer":"4616"},"type":"Feature"},{"geometry":{"coordinates":[[[6.027,60.194],[6.511,60.431],[6.784,60.459],[7.036,60.41],[6.982,60.348],[7.116,60.353],[7.243,60.269],[7.165,60.259],[7.223,60.134],[7.488,60.099],[7.436,60.019],[7.233,59.963],[7.096,59.783],[6.977,59.772],[6.767,59.7],[6.71,59.694],[6.688,59.696],[6.685,59.831],[6.657,59.845],[6.525,59.838],[6.493,59.936],[6.332,60.018],[6.468,60.113],[6.474,60.209],[6.279,60.208],[6.161,60.117],[6.027,60.194]]],"crs":{"properties":{"name":"EPSG:4326"},"type":"name"},"type":"Polygon"},"properties":{"kommunenavn":"Ullensvang","kommunenummer":"4618"},"type":"Feature"},{"geometry":{"coordinates":[[[7.732,60.521],[7.282,60.592],[6.804,60.468],[6.751,60.485],[6.813,60.515],[6.838,60.674],[6.986,60.741],[7.47,60.676],[7.636,60.633],[7.64,60.56],[7.732,60.521]]],"crs":{"properties":{"name":"EPSG:4326"},"type":"name"},"type":"Polygon"},"properties":{"kommunenavn":"Ulvik","kommunenummer":"4620"},"type":"Feature"},{"geometry":{"coordinates":[[[5.62,60.438],[5.721,60.464],[5.71,60.531],[5.587,60.576],[5.674,60.599],[5.651,60.716],[5.677,60.737],[6.21,60.914],[6.304,60.881],[6.311,60.816],[6.227,60.766],[5.925,60.734],[5.847,60.654],[5.973,60.575],[6.077,60.589],[6.079,60.525],[5.991,60.503],[5.686,60.436],[5.62,60.438]]],"crs":{"properties":{"name":"EPSG:4326"},"type":"name"},"type":"Polygon"},"properties":{"kommunenavn":"Vaksdal","kommunenummer":"4628"},"type":"Feature"},{"geometry":{"coordinates":[[[6.149,60.984],[6.194,61.138],[6.341,61.097],[6.37,61.09],[6.484,61.099],[6.654,61.191],[6.999,61.092],[7.03,61.06],[6.75,60.934],[6.657,60.96],[6.542,60.892],[6.479,60.947],[6.304,60.881],[6.21,60.914],[6.149,60.984]]],"crs":{"properties":{"name":"EPSG:4326"},"type":"name"},"type":"Polygon"},"properties":{"kommunenavn":"Vik","kommunenummer":"4639"},"type":"Feature"},{"geometry":{"coordinates":[[[6.079,60.525],[6.077,60.589],[5.973,60.575],[5.847,60.654],[5.925,60.734],[6.227,60.766],[6.311,60.816],[6.304,60.881],[6.479,60.947],[6.542,60.892],[6.657,60.96],[6.75,60.934],[6.826,60.896],[6.722,60.843],[6.949,60.841],[6.871,60.768],[6.986,60.741],[6.838,60.674],[6.813,60.515],[6.751,60.485],[6.804,60.468],[6.784,60.459],[6.511,60.431],[6.371,60.509],[6.079,60.525]]],"crs":{"properties":{"name":"EPSG:4326"},"type":"name"},"type":"Polygon"},"properties":{"kommunenavn":"Voss","kommunenummer":"4621"},"type":"Feature"},{"geometry":{"coordinates":[[[8.007,61.235],[7.784,61.151],[7.813,61.12],[7.656,61.111],[7.473,61.147],[7.475,61.192],[7.43,61.183],[7.378,61.199],[7.507,61.329],[7.62,61.322],[7.645,61.441],[8.15,61.427],[8.244,61.321],[8.051,61.233],[8.007,61.235]]],"crs":{"properties":{"name":"EPSG:4326"},"type":"name"},"type":"Polygon"},"properties":{"kommunenavn":"Årdal","kommunenummer":"4643"},"type":"Feature"},{"geometry":{"coordinates":[[[4.266,60.688],[4.777,60.734],[4.898,60.632],[5.057,60.412],[5.17,60.382],[5.203,60.321],[5.145,60.264],[5.233,60.255],[5.21,60.189],[4.547,60.104],[4.266,60.688]]],"crs":{"properties":{"name":"EPSG:4326"},"type":"name"},"type":"Polygon"},"properties":{"kommunenavn":"Øygarden","kommunenummer":"4626"},"type":"Feature"}],"type":"FeatureCollection"}
